NORAD_CAT_ID,OBJECT_NAME,OBJECT_TYPE,EPOCH,MEAN_MOTION,ECCENTRICITY,INCLINATION,RA_OF_ASC_NODE,ARG_OF_PERICENTER,MEAN_ANOMALY,BSTAR,MEAN_MOTION_DOT,MEAN_MOTION_DDOT,TLE_LINE0,TLE_LINE1,TLE_LINE2,SEMIMAJOR_AXIS,PERIOD,APOGEE,PERIGEE,DECAYED
53414.0,STARLINK-4304,PAYLOAD,2023-10-03 08:23:00,15.08837917,0.0001529,53.2146,142.0372,84.996,275.1206,0.00066464,0.00010305,0.0,0 STARLINK-4304,1 53414U 22097AC  23276.34931168  .00010305  00000-0  66464-3 0  9990,2 53414  53.2146 142.0372 0001529  84.9960 275.1206 15.08837917 64532,6917.887,95.438,540.81,538.694,0.0
53414.0,STARLINK-4304,PAYLOAD,2023-10-03 21:06:05,15.08845924,0.0001641,53.2149,139.6567,88.2363,271.8817,0.00076386,0.00011892,0.0,0 STARLINK-4304,1 53414U 22097AC  23276.87923247  .00011892  00000-0  76386-3 0  9993,2 53414  53.2149 139.6567 0001641  88.2363 271.8817 15.08845924 64136,6917.862,95.437,540.863,538.592,0.0
53414.0,STARLINK-4304,PAYLOAD,2023-10-04 08:13:47,15.08851575,0.000143,53.2149,137.5759,86.2056,273.91,0.00048273,7.405e-05,0.0,0 STARLINK-4304,1 53414U 22097AC  23277.34290911  .00007405  00000-0  48273-3 0  9990,2 53414  53.2149 137.5759 0001430  86.2056 273.9100 15.08851575 64686,6917.845,95.437,540.699,538.721,0.0
53414.0,STARLINK-4304,PAYLOAD,2023-10-04 20:56:51,15.08859703,0.0001461,53.2146,135.1945,101.1957,258.9199,0.00061424,9.506e-05,0.0,0 STARLINK-4304,1 53414U 22097AC  23277.87282364  .00009506  00000-0  61424-3 0  9998,2 53414  53.2146 135.1945 0001461 101.1957 258.9199 15.08859703 64766,6917.82,95.436,540.696,538.674,0.0
53414.0,STARLINK-4304,PAYLOAD,2023-10-05 00:07:38,15.08866602,0.0001483,53.2153,134.6013,96.0849,264.0312,0.00079992,0.00012475,0.0,0 STARLINK-4304,1 53414U 22097AC  23278.00530155  .00012475  00000-0  79992-3 0  9996,2 53414  53.2153 134.6013 0001483  96.0849 264.0312 15.08866602 64301,6917.799,95.436,540.69,538.638,0.0
53414.0,STARLINK-4304,PAYLOAD,2023-10-05 08:04:34,15.08847366,0.0001457,53.2153,133.1156,82.0732,278.0426,0.00022829,3.348e-05,0.0,0 STARLINK-4304,1 53414U 22097AC  23278.33650515  .00003348  00000-0  22829-3 0  9991,2 53414  53.2153 133.1156 0001457  82.0732 278.0426 15.08847366 64352,6917.858,95.437,540.731,538.715,0.0
53414.0,STARLINK-4304,PAYLOAD,2023-10-05 20:47:39,15.08843437,0.0001324,53.2157,130.7365,99.0548,261.0594,0.00037481,5.683e-05,0.0,0 STARLINK-4304,1 53414U 22097AC  23278.86642649  .00005683  00000-0  37481-3 0  9992,2 53414  53.2157 130.7365 0001324  99.0548 261.0594 15.08843437 64912,6917.87,95.437,540.651,538.819,0.0
53414.0,STARLINK-4304,PAYLOAD,2023-10-05 23:58:25,15.08841344,0.0001416,53.2161,130.1407,94.3425,265.7729,0.00032692,4.919e-05,0.0,0 STARLINK-4304,1 53414U 22097AC  23278.99890716  .00004919  00000-0  32692-3 0  9996,2 53414  53.2161 130.1407 0001416  94.3425 265.7729 15.08841344 64457,6917.876,95.437,540.721,538.762,0.0
53414.0,STARLINK-4304,PAYLOAD,2023-10-06 20:38:26,15.08839102,0.0001391,53.2163,126.2744,90.0198,270.0954,0.00011853,1.599e-05,0.0,0 STARLINK-4304,1 53414U 22097AC  23279.86003190  .00001599  00000-0  11853-3 0  9992,2 53414  53.2163 126.2744 0001391  90.0198 270.0954 15.08839102 64583,6917.883,95.438,540.71,538.786,0.0
53414.0,STARLINK-4304,PAYLOAD,2023-10-06 23:49:12,15.0884019,0.0001431,53.2165,125.6798,90.2544,269.8612,0.0001147,1.538e-05,0.0,0 STARLINK-4304,1 53414U 22097AC  23279.99251154  .00001538  00000-0  11470-3 0  9999,2 53414  53.2165 125.6798 0001431  90.2544 269.8612 15.08840190 65081,6917.88,95.438,540.735,538.755,0.0
53414.0,STARLINK-4304,PAYLOAD,2023-10-07 20:29:13,15.08849663,0.0001303,53.2158,121.8143,86.1258,273.9883,0.00032475,4.886e-05,0.0,0 STARLINK-4304,1 53414U 22097AC  23280.85362971  .00004886  00000-0  32475-3 0  9993,2 53414  53.2158 121.8143 0001303  86.1258 273.9883 15.08849663 65214,6917.851,95.437,540.617,538.814,0.0
53414.0,STARLINK-4304,PAYLOAD,2023-10-07 23:39:59,15.08851601,0.000131,53.2159,121.2196,85.9981,274.1161,0.00035083,5.302e-05,0.0,0 STARLINK-4304,1 53414U 22097AC  23280.98610876  .00005302  00000-0  35083-3 0  9999,2 53414  53.2159 121.2196 0001310  85.9981 274.1161 15.08851601 64750,6917.845,95.437,540.616,538.804,0.0
53414.0,STARLINK-4304,PAYLOAD,2023-10-08 06:01:32,15.08849716,0.0001257,53.2153,120.0304,83.4755,276.638,0.00028726,4.288e-05,0.0,0 STARLINK-4304,1 53414U 22097AC  23281.25106805  .00004288  00000-0  28726-3 0  9990,2 53414  53.2153 120.0304 0001257  83.4755 276.6380 15.08849716 65276,6917.851,95.437,540.585,538.846,0.0
53414.0,STARLINK-4304,PAYLOAD,2023-10-08 18:44:37,15.0883794,0.0001614,53.217,117.652,86.7036,273.414,-4.8235e-06,-3.65e-06,0.0,0 STARLINK-4304,1 53414U 22097AC  23281.78099315 -.00000365  00000-0 -48235-5 0  9998,2 53414  53.2170 117.6520 0001614  86.7036 273.4140 15.08837940 64872,6917.887,95.438,540.868,538.635,0.0
53414.0,STARLINK-4304,PAYLOAD,2023-10-08 20:20:00,15.08842593,0.0001509,53.2167,117.3567,89.7274,270.3892,6.9806e-05,8.23e-06,0.0,0 STARLINK-4304,1 53414U 22097AC  23281.84723239  .00000823  00000-0  69806-4 0  9997,2 53414  53.2167 117.3567 0001509  89.7274 270.3892 15.08842593 65361,6917.872,95.437,540.781,538.694,0.0
53414.0,STARLINK-4304,PAYLOAD,2023-10-09 13:49:15,15.08838534,0.0001485,53.2168,114.0857,93.656,266.4602,-4.0711e-05,-9.36e-06,0.0,0 STARLINK-4304,1 53414U 22097AC  23282.57587370 -.00000936  00000-0 -40711-4 0  9993,2 53414  53.2168 114.0857 0001485  93.6560 266.4602 15.08838534 65470,6917.885,95.438,540.777,538.723,0.0
53414.0,STARLINK-4304,PAYLOAD,2023-10-09 20:10:47,15.08844315,0.0001507,53.2167,112.8964,93.557,266.5595,2.328e-05,8.3e-07,0.0,0 STARLINK-4304,1 53414U 22097AC  23282.84083084  .00000083  00000-0  23280-4 0  9999,2 53414  53.2167 112.8964 0001507  93.5570 266.5595 15.08844315 65037,6917.867,95.437,540.775,538.69,0.0
53414.0,STARLINK-4304,PAYLOAD,2023-10-09 21:46:10,15.08846841,0.0001448,53.2162,112.5977,91.173,268.9428,5.2434e-05,5.47e-06,0.0,0 STARLINK-4304,1 53414U 22097AC  23282.90706923  .00000547  00000-0  52434-4 0  9998,2 53414  53.2162 112.5977 0001448  91.1730 268.9428 15.08846841 65520,6917.859,95.437,540.726,538.723,0.0
53414.0,STARLINK-4304,PAYLOAD,2023-10-09 23:21:33,15.08849082,0.0001474,53.216,112.3005,90.9642,269.1519,0.0001012,1.323e-05,0.0,0 STARLINK-4304,1 53414U 22097AC  23282.97330817  .00001323  00000-0  10120-3 0  9998,2 53414  53.2160 112.3005 0001474  90.9642 269.1519 15.08849082 65531,6917.853,95.437,540.737,538.698,0.0
53414.0,STARLINK-4304,PAYLOAD,2023-10-10 20:01:35,15.08842356,0.0001625,53.2164,108.4351,76.3849,283.7324,0.00014089,1.955e-05,0.0,0 STARLINK-4304,1 53414U 22097AC  23283.83443383  .00001955  00000-0  14089-3 0  9996,2 53414  53.2164 108.4351 0001625  76.3849 283.7324 15.08842356 65667,6917.873,95.437,540.862,538.614,0.0
53414.0,STARLINK-4304,PAYLOAD,2023-10-10 23:12:21,15.08848552,0.0001484,53.2162,107.8399,87.274,272.8422,0.00021979,3.213e-05,0.0,0 STARLINK-4304,1 53414U 22097AC  23283.96690988  .00003213  00000-0  21979-3 0  9990,2 53414  53.2162 107.8399 0001484  87.2740 272.8422 15.08848552 65206,6917.854,95.437,540.746,538.693,0.0
53414.0,STARLINK-4304,PAYLOAD,2023-10-11 11:55:26,15.08835504,0.000134,53.2161,105.4601,91.9237,268.1908,4.0011e-05,3.49e-06,0.0,0 STARLINK-4304,1 53414U 22097AC  23284.49683536  .00000349  00000-0  40011-4 0  9996,2 53414  53.2161 105.4601 0001340  91.9237 268.1908 15.08835504 65287,6917.894,95.438,540.686,538.832,0.0
53414.0,STARLINK-4304,PAYLOAD,2023-10-11 19:52:22,15.08844403,0.0001418,53.2148,103.9733,91.7941,268.3213,0.00018617,2.677e-05,0.0,0 STARLINK-4304,1 53414U 22097AC  23284.82803274  .00002677  00000-0  18617-3 0  9998,2 53414  53.2148 103.9733 0001418  91.7941 268.3213 15.08844403 65332,6917.867,95.437,540.713,538.751,0.0
53414.0,STARLINK-4304,PAYLOAD,2023-10-12 11:46:13,15.08842335,0.0001374,53.2141,100.9994,89.5992,270.5157,0.00024801,3.662e-05,0.0,0 STARLINK-4304,1 53414U 22097AC  23285.49043574  .00003662  00000-0  24801-3 0  9998,2 53414  53.2141 100.9994 0001374  89.5992 270.5157 15.08842335 65911,6917.873,95.437,540.689,538.788,0.0
53414.0,STARLINK-4304,PAYLOAD,2023-10-12 18:07:46,15.08844863,0.0001375,53.2144,99.8102,86.704,273.411,0.00028773,4.295e-05,0.0,0 STARLINK-4304,1 53414U 22097AC  23285.75539528  .00004295  00000-0  28773-3 0  9991,2 53414  53.2144  99.8102 0001375  86.7040 273.4110 15.08844863 65475,6917.866,95.437,540.682,538.779,0.0
53414.0,STARLINK-4304,PAYLOAD,2023-10-13 11:37:00,15.08843232,0.000145,53.2155,96.5396,84.453,275.6627,0.0002138,3.117e-05,0.0,0 STARLINK-4304,1 53414U 22097AC  23286.48403622  .00003117  00000-0  21380-3 0  9996,2 53414  53.2155  96.5396 0001450  84.4530 275.6627 15.08843232 65587,6917.871,95.437,540.739,538.732,0.0
53414.0,STARLINK-4304,PAYLOAD,2023-10-13 14:47:46,15.08844039,0.0001458,53.2154,95.9443,85.5843,274.5316,0.00017921,2.566e-05,0.0,0 STARLINK-4304,1 53414U 22097AC  23286.61651542  .00002566  00000-0  17921-3 0  9990,2 53414  53.2154  95.9443 0001458  85.5843 274.5316 15.08844039 66084,6917.868,95.437,540.742,538.724,0.0
53414.0,STARLINK-4304,PAYLOAD,2023-10-13 17:58:33,15.08847176,0.0001429,53.2151,95.3489,89.8436,270.272,0.00021866,3.194e-05,0.0,0 STARLINK-4304,1 53414U 22097AC  23286.74899356  .00003194  00000-0  21866-3 0  9992,2 53414  53.2151  95.3489 0001429  89.8436 270.2720 15.08847176 66108,6917.858,95.437,540.712,538.735,0.0
53414.0,STARLINK-4304,PAYLOAD,2023-10-14 17:49:20,15.08844749,0.0001403,53.2158,90.8876,91.4722,268.6431,3.1029e-05,2.06e-06,0.0,0 STARLINK-4304,1 53414U 22097AC  23287.74259401  .00000206  00000-0  31029-4 0  9998,2 53414  53.2158  90.8876 0001403  91.4722 268.6431 15.08844749 65779,6917.866,95.437,540.701,538.76,0.0
53414.0,STARLINK-4304,PAYLOAD,2023-10-14 21:00:06,15.08842966,0.0001395,53.2159,90.2929,90.256,269.8592,6.0397e-05,6.73e-06,0.0,0 STARLINK-4304,1 53414U 22097AC  23287.87507366  .00000673  00000-0  60397-4 0  9996,2 53414  53.2159  90.2929 0001395  90.2560 269.8592 15.08842966 66276,6917.871,95.437,540.701,538.771,0.0
